{"type": "FeatureCollection", "features": [ {"type": "Feature", "properties": {"norad_id": 28649, "name": "IRS-P5 (CARTOSAT-1)", "group": "resource", "lat": 35.835825658792665, "lon": -147.90860305838132, "alt_km": 594.0096445165618, "timestamp": "2025-12-26T19:22:38.550568+00:00", "meta": {"OBJECT_NAME": "IRS-P5 (CARTOSAT-1)", "OBJECT_ID": "2005-017A", "EPOCH": "2025-12-26T12:17:23.159904", "MEAN_MOTION": 14.90450181, "ECCENTRICITY": 4.684e-05, "INCLINATION": 97.5483, "RA_OF_ASC_NODE": 26.3141, "ARG_OF_PERICENTER": 73.2252, "MEAN_ANOMALY": 286.9018, "EPHEMERIS_TYPE": 0, "CLASSIFICATION_TYPE": "U", "NORAD_CAT_ID": 28649, "ELEMENT_SET_NO": 999, "REV_AT_EPOCH": 11809, "BSTAR": 0.00017905905, "MEAN_MOTION_DOT": 1.694e-05, "MEAN_MOTION_DDOT": 0}, "tle": {"line1": "1 28649U 05017A   25360.51207361  .00001694  00000+0  17906-3 0  9998", "line2": "2 28649  97.5483  26.3141 0000468  73.2252 286.9018 14.90450181118099"}}, "geometry": {"type": "Point", "coordinates": [-147.90860305838132, 35.835825658792665]}}, {"type": "Feature", "properties": {"norad_id": 28893, "name": "SINAH 1", "group": "resource", "lat": -59.0447305318869, "lon": -64.61488658677925, "alt_km": 696.460742940013, "timestamp": "2025-12-26T19:22:38.550579+00:00", "meta": {"OBJECT_NAME": "SINAH 1", "OBJECT_ID": "2005-043D", "EPOCH": "2025-12-26T15:00:17.932320", "MEAN_MOTION": 14.63976969, "ECCENTRICITY": 0.00157352, "INCLINATION": 98.261, "RA_OF_ASC_NODE": 129.2203, "ARG_OF_PERICENTER": 96.5513, "MEAN_ANOMALY": 263.7481, "EPHEMERIS_TYPE": 0, "CLASSIFICATION_TYPE": "U", "NORAD_CAT_ID": 28893, "ELEMENT_SET_NO": 999, "REV_AT_EPOCH": 7527, "BSTAR": 0.00010603641, "MEAN_MOTION_DOT": 5.07e-06, "MEAN_MOTION_DDOT": 0}, "tle": {"line1": "1 28893U 05043D   25360.62520755  .00000507  00000+0  10604-3 0  9995", "line2": "2 28893  98.2610 129.2203 0015735  96.5513 263.7481 14.63976969 75279"}}, "geometry": {"type": "Point", "coordinates": [-64.61488658677925, -59.0447305318869]}}, {"type": "Feature", "properties": {"norad_id": 29079, "name": "EROS B", "group": "resource", "lat": -55.450542220420246, "lon": -72.70037463356351, "alt_km": 356.50725504751426, "timestamp": "2025-12-26T19:22:38.550589+00:00", "meta": {"OBJECT_NAME": "EROS B", "OBJECT_ID": "2006-014A", "EPOCH": "2025-12-26T13:47:45.503808", "MEAN_MOTION": 15.72938386, "ECCENTRICITY": 0.00047834, "INCLINATION": 97.3449, "RA_OF_ASC_NODE": 117.852, "ARG_OF_PERICENTER": 312.1845, "MEAN_ANOMALY": 47.9013, "EPHEMERIS_TYPE": 0, "CLASSIFICATION_TYPE": "U", "NORAD_CAT_ID": 29079, "ELEMENT_SET_NO": 999, "REV_AT_EPOCH": 9297, "BSTAR": 0.0014674105, "MEAN_MOTION_DOT": 0.0020356, "MEAN_MOTION_DDOT": 0}, "tle": {"line1": "1 29079U 06014A   25360.57483222  .00203560  00000+0  14674-2 0  9996", "line2": "2 29079  97.3449 117.8520 0004783 312.1845  47.9013 15.72938386 92978"}}, "geometry": {"type": "Point", "coordinates": [-72.70037463356351, -55.450542220420246]}}, {"type": "Feature", "properties": {"norad_id": 29228, "name": "RESURS-DK 1", "group": "resource", "lat": 63.27865610427979, "lon": -161.08076928971627, "alt_km": 526.1774590541781, "timestamp": "2025-12-26T19:22:38.550600+00:00", "meta": {"OBJECT_NAME": "RESURS-DK 1", "OBJECT_ID": "2006-021A", "EPOCH": "2025-12-26T14:08:19.212864", "MEAN_MOTION": 15.12237827, "ECCENTRICITY": 0.0006959, "INCLINATION": 69.9336, "RA_OF_ASC_NODE": 66.0447, "ARG_OF_PERICENTER": 246.6774, "MEAN_ANOMALY": 113.3659, "EPHEMERIS_TYPE": 0, "CLASSIFICATION_TYPE": "U", "NORAD_CAT_ID": 29228, "ELEMENT_SET_NO": 999, "REV_AT_EPOCH": 7647, "BSTAR": 0.00017973319, "MEAN_MOTION_DOT": 3.008e-05, "MEAN_MOTION_DDOT": 0}, "tle": {"line1": "1 29228U 06021A   25360.58911126  .00003008  00000+0  17973-3 0  9991", "line2": "2 29228  69.9336  66.0447 0006959 246.6774 113.3659 15.12237827 76473"}}, "geometry": {"type": "Point", "coordinates": [-161.08076928971627, 63.27865610427979]}}, {"type": "Feature", "properties": {"norad_id": 29268, "name": "ARIRANG-2 (KOMPSAT-2)", "group": "resource", "lat": 8.299856969282343, "lon": 9.744301750980034, "alt_km": 680.3684799509992, "timestamp": "2025-12-26T19:22:38.550610+00:00", "meta": {"OBJECT_NAME": "ARIRANG-2 (KOMPSAT-2)", "OBJECT_ID": "2006-031A", "EPOCH": "2025-12-26T15:39:21.184128", "MEAN_MOTION": 14.64506305, "ECCENTRICITY": 0.00131186, "INCLINATION": 97.826, "RA_OF_ASC_NODE": 188.4472, "ARG_OF_PERICENTER": 261.1459, "MEAN_ANOMALY": 173.4784, "EPHEMERIS_TYPE": 0, "CLASSIFICATION_TYPE": "U", "NORAD_CAT_ID": 29268, "ELEMENT_SET_NO": 999, "REV_AT_EPOCH": 3622, "BSTAR": 0.00010931466, "MEAN_MOTION_DOT": 5.35e-06, "MEAN_MOTION_DDOT": 0}, "tle": {"line1": "1 29268U 06031A   25360.65232852  .00000535  00000+0  10931-3 0  9995", "line2": "2 29268  97.8260 188.4472 0013118 261.1459 173.4784 14.64506305 36228"}}, "geometry": {"type": "Point", "coordinates": [9.744301750980034, 8.299856969282343]}}, {"type": "Feature", "properties": {"norad_id": 29709, "name": "LAPAN-TUBSAT", "group": "resource", "lat": 78.66989109672997, "lon": -143.25382955630678, "alt_km": 600.3270967119479, "timestamp": "2025-12-26T19:22:38.550620+00:00", "meta": {"OBJECT_NAME": "LAPAN-TUBSAT", "OBJECT_ID": "2007-001A", "EPOCH": "2025-12-26T14:05:24.504288", "MEAN_MOTION": 14.85689698, "ECCENTRICITY": 0.00130824, "INCLINATION": 98.1267, "RA_OF_ASC_NODE": 351.0287, "ARG_OF_PERICENTER": 32.798, "MEAN_ANOMALY": 327.4044, "EPHEMERIS_TYPE": 0, "CLASSIFICATION_TYPE": "U", "NORAD_CAT_ID": 29709, "ELEMENT_SET_NO": 999, "REV_AT_EPOCH": 2552, "BSTAR": 7.3068751e-05, "MEAN_MOTION_DOT": 5.77e-06, "MEAN_MOTION_DDOT": 0}, "tle": {"line1": "1 29709U 07001A   25360.58708917  .00000577  00000+0  73069-4 0  9993", "line2": "2 29709  98.1267 351.0287 0013082  32.7980 327.4044 14.85689698 25523"}}, "geometry": {"type": "Point", "coordinates": [-143.25382955630678, 78.66989109672997]}}, {"type": "Feature", "properties": {"norad_id": 31113, "name": "HAIYANG-1B", "group": "resource", "lat": 79.54998385285337, "lon": -142.86955060765536, "alt_km": 782.5761882894467, "timestamp": "2025-12-26T19:22:38.550631+00:00", "meta": {"OBJECT_NAME": "HAIYANG-1B", "OBJECT_ID": "2007-010A", "EPOCH": "2025-12-26T12:13:01.450848", "MEAN_MOTION": 14.3096953, "ECCENTRICITY": 0.00135155, "INCLINATION": 98.3331, "RA_OF_ASC_NODE": 344.2192, "ARG_OF_PERICENTER": 358.4031, "MEAN_ANOMALY": 1.7108, "EPHEMERIS_TYPE": 0, "CLASSIFICATION_TYPE": "U", "NORAD_CAT_ID": 31113, "ELEMENT_SET_NO": 999, "REV_AT_EPOCH": 97593, "BSTAR": 6.670665e-05, "MEAN_MOTION_DOT": 1.34e-06, "MEAN_MOTION_DDOT": 0}, "tle": {"line1": "1 31113U 07010A   25360.50904457  .00000134  00000+0  66707-4 0  9994", "line2": "2 31113  98.3331 344.2192 0013515 358.4031   1.7108 14.30969530975932"}}, "geometry": {"type": "Point", "coordinates": [-142.86955060765536, 79.54998385285337]}}, {"type": "Feature", "properties": {"norad_id": 31598, "name": "COSMO-SKYMED 1", "group": "resource", "lat": -26.017332936426214, "lon": 2.421337601762869, "alt_km": 585.8955879492869, "timestamp": "2025-12-26T19:22:38.550642+00:00", "meta": {"OBJECT_NAME": "COSMO-SKYMED 1", "OBJECT_ID": "2007-023A", "EPOCH": "2025-12-26T15:14:52.022112", "MEAN_MOTION": 14.95866804, "ECCENTRICITY": 0.00011328, "INCLINATION": 97.8838, "RA_OF_ASC_NODE": 186.1264, "ARG_OF_PERICENTER": 77.5679, "MEAN_ANOMALY": 282.5668, "EPHEMERIS_TYPE": 0, "CLASSIFICATION_TYPE": "U", "NORAD_CAT_ID": 31598, "ELEMENT_SET_NO": 999, "REV_AT_EPOCH": 398, "BSTAR": 0.00030501383, "MEAN_MOTION_DOT": 3.35e-05, "MEAN_MOTION_DDOT": 0}, "tle": {"line1": "1 31598U 07023A   25360.63532433  .00003350  00000+0  30501-3 0  9995", "line2": "2 31598  97.8838 186.1264 0001132  77.5679 282.5668 14.95866804  3985"}}, "geometry": {"type": "Point", "coordinates": [2.421337601762869, -26.017332936426214]}}, {"type": "Feature", "properties": {"norad_id": 31698, "name": "TERRASAR-X", "group": "resource", "lat": -38.22120511680541, "lon": 11.893108347960375, "alt_km": 515.4730294394212, "timestamp": "2025-12-26T19:22:38.550652+00:00", "meta": {"OBJECT_NAME": "TERRASAR-X", "OBJECT_ID": "2007-026A", "EPOCH": "2025-12-26T13:13:25.268160", "MEAN_MOTION": 15.19159007, "ECCENTRICITY": 0.0001831, "INCLINATION": 97.4449, "RA_OF_ASC_NODE": 5.7296, "ARG_OF_PERICENTER": 80.7089, "MEAN_ANOMALY": 279.4352, "EPHEMERIS_TYPE": 0, "CLASSIFICATION_TYPE": "U", "NORAD_CAT_ID": 31698, "ELEMENT_SET_NO": 999, "REV_AT_EPOCH": 2701, "BSTAR": 7.451225e-05, "MEAN_MOTION_DOT": 1.498e-05, "MEAN_MOTION_DDOT": 0}, "tle": {"line1": "1 31698U 07026A   25360.55098690  .00001498  00000+0  74512-4 0  9994", "line2": "2 31698  97.4449   5.7296 0001831  80.7089 279.4352 15.19159007 27010"}}, "geometry": {"type": "Point", "coordinates": [11.893108347960375, -38.22120511680541]}}, {"type": "Feature", "properties": {"norad_id": 32060, "name": "WORLDVIEW-1 (WV-1)", "group": "resource", "lat": -44.412339470350965, "lon": -69.21613710710132, "alt_km": 501.7567460221335, "timestamp": "2025-12-26T19:22:38.550663+00:00", "meta": {"OBJECT_NAME": "WORLDVIEW-1 (WV-1)", "OBJECT_ID": "2007-041A", "EPOCH": "2025-12-26T13:39:58.675104", "MEAN_MOTION": 15.23982891, "ECCENTRICITY": 0.00030548, "INCLINATION": 97.3818, "RA_OF_ASC_NODE": 117.8466, "ARG_OF_PERICENTER": 349.223, "MEAN_ANOMALY": 10.8942, "EPHEMERIS_TYPE": 0, "CLASSIFICATION_TYPE": "U", "NORAD_CAT_ID": 32060, "ELEMENT_SET_NO": 999, "REV_AT_EPOCH": 1658, "BSTAR": 0.00036111193, "MEAN_MOTION_DOT": 8.675e-05, "MEAN_MOTION_DDOT": 0}, "tle": {"line1": "1 32060U 07041A   25360.56942911  .00008675  00000+0  36111-3 0  9996", "line2": "2 32060  97.3818 117.8466 0003054 349.2230  10.8942 15.23982891 16589"}}, "geometry": {"type": "Point", "coordinates": [-69.21613710710132, -44.412339470350965]}}]}